IRIDIUM 159             
1 43578U 18061K   25342.94747779  .00000323  00000+0  10818-3 0  9991
2 43578  86.3971 136.2512 0001978  86.6858 273.4564 14.34214259386114
IRIDIUM 180             
1 43922U 19002A   25342.80744197  .00000206  00000+0  66424-4 0  9991
2 43922  86.3966  73.1851 0001993  92.8467 267.2957 14.34216973361708
IRIDIUM 176             
1 43923U 19002B   25342.78142002  .00001951  00000+0  30539-3 0  9991
2 43923  86.6088  73.1671 0002223  99.0709 261.0760 14.72268950371239
IRIDIUM 168             
1 43924U 19002C   25342.80109870  .00000056  00000+0  12942-4 0  9995
2 43924  86.3971  73.2598 0001976  96.7996 263.3425 14.34216107361689
IRIDIUM 173             
1 43925U 19002D   25342.78841211  .00000777  00000+0  27044-3 0  9993
2 43925  86.3965  73.1615 0001876  99.2658 260.8750 14.34217251361666
IRIDIUM 169             
1 43926U 19002E   25342.87808973  .00000606  00000+0  19166-3 0  9999
2 43926  86.4218 104.7748 0001687 129.7499 230.3848 14.38615190362860
IRIDIUM 172             
1 43927U 19002F   25342.78207038  .00000402  00000+0  13632-3 0  9991
2 43927  86.3965  73.1715 0001986  91.6535 268.4888 14.34217119361671
IRIDIUM 175             
1 43928U 19002G   25342.84467654  .00001157  00000+0  17959-3 0  9995
2 43928  86.1505  15.7669 0003123  97.0887 263.0685 14.72247661371231
